     2.10           G: GLONASS NAV DATA                     RINEX VERSION / TYPE
teqc  2015Jun23                         20210914 01:26:16UTCPGM / RUN BY / DATE
Linux 2.4.21-27.ELsmp|Opteron|gcc -static|Linux x86_64|=+   COMMENT
  2021     8    21   -9.313225746155D-10                    CORR TO SYSTEM TIME
                                                            END OF HEADER
 6 21  8 22 17 15  0.0 2.036895602942D-04 0.000000000000D+00 6.120000000000D+04
   -4.894960937500D+03-2.347421646118D-01-9.313225746155D-10 0.000000000000D+00
    1.915249902344D+04-2.194859504700D+00 5.587935447693D-09-4.000000000000D+00
   -1.611972753906D+04-2.540507316589D+00 0.000000000000D+00 0.000000000000D+00
 8 21  8 22 17 15  0.0-6.053224205971D-05-0.000000000000D+00 6.120000000000D+04
    9.657049804688D+03 3.909816741943D-01-1.862645149231D-09 0.000000000000D+00
    1.798115576172D+04 2.057442665100D+00 9.313225746155D-10 6.000000000000D+00
    1.533720410156D+04-2.669308662415D+00-2.793967723846D-09 0.000000000000D+00
21 21  8 22 17 15  0.0-2.334797754884D-04-2.728484105319D-12 6.120000000000D+04
   -5.200416503906D+03-2.101854324341D+00-9.313225746155D-10 0.000000000000D+00
    1.511841259766D+04 1.739307403564D+00 5.587935447693D-09 4.000000000000D+00
   -1.989369921875D+04 1.868469238281D+00 0.000000000000D+00 0.000000000000D+00
10 21  8 22 17 45  0.0-7.422734051943D-05-0.000000000000D+00 6.300000000000D+04
    7.228359375000D+02-3.020298004150D+00-0.000000000000D+00 0.000000000000D+00
    1.143084472656D+04-7.837390899658D-01 0.000000000000D+00-7.000000000000D+00
    2.278580566406D+04 4.950599670410D-01-2.793967723846D-09 0.000000000000D+00
 7 21  8 22 17 45  0.0-4.157051444054D-05-0.000000000000D+00 6.300000000000D+04
    3.246911621094D+03-8.385467529297D-02-1.862645149231D-09 0.000000000000D+00
    2.439424023438D+04-9.177837371826D-01 5.587935447693D-09 5.000000000000D+00
   -6.588909179688D+03-3.425357818604D+00-9.313225746155D-10 0.000000000000D+00
 6 21  8 22 17 45  0.0 2.036904916167D-04 0.000000000000D+00 6.300000000000D+04
   -5.722489257812D+03-6.999444961548D-01-0.000000000000D+00 0.000000000000D+00
    1.475429589844D+04-2.646821022034D+00 5.587935447693D-09-4.000000000000D+00
   -2.001048730469D+04-1.754577636719D+00 9.313225746155D-10 0.000000000000D+00
 8 21  8 22 17 45  0.0-6.052944809198D-05-0.000000000000D+00 6.300000000000D+04
    1.048857470703D+04 4.939365386963D-01-1.862645149231D-09 0.000000000000D+00
    2.100239746094D+04 1.277810096741D+00 2.793967723846D-09 6.000000000000D+00
    1.000273632812D+04-3.219610214233D+00-2.793967723846D-09 0.000000000000D+00
20 21  8 22 17 45  0.0-5.458481609821D-05-0.000000000000D+00 6.300000000000D+04
   -1.936448925781D+04 4.366073608398D-01 1.862645149231D-09 0.000000000000D+00
    1.636831298828D+04-5.910968780518D-02 3.725290298462D-09 2.000000000000D+00
    2.626531250000D+03 3.593131065369D+00-1.862645149231D-09 0.000000000000D+00
21 21  8 22 17 45  0.0-2.334844321012D-04-2.728484105319D-12 6.300000000000D+04
   -8.382520996094D+03-1.420190811157D+00 0.000000000000D+00 0.000000000000D+00
    1.820546630859D+04 1.643556594849D+00 5.587935447693D-09 4.000000000000D+00
   -1.580616943359D+04 2.643758773804D+00-0.000000000000D+00 0.000000000000D+00
20 21  8 22 18 15  0.0-5.458667874336D-05-0.000000000000D+00 6.480000000000D+04
   -1.807048681641D+04 9.617109298706D-01 1.862645149231D-09 0.000000000000D+00
    1.561993310547D+04-7.912235260010D-01 2.793967723846D-09 2.000000000000D+00
    8.908680664062D+03 3.341626167297D+00-1.862645149231D-09 0.000000000000D+00
 7 21  8 22 18 15  0.0-4.157051444054D-05-0.000000000000D+00 6.480000000000D+04
    2.723620117188D+03-5.259466171265D-01-0.000000000000D+00 0.000000000000D+00
    2.207097753906D+04-1.631173133850D+00 6.519258022308D-09 5.000000000000D+00
   -1.241879638672D+04-3.010019302368D+00-0.000000000000D+00 0.000000000000D+00
 6 21  8 22 18 15  0.0 2.036923542619D-04 0.000000000000D+00 6.480000000000D+04
   -7.438342285156D+03-1.204116821289D+00 9.313225746155D-10 0.000000000000D+00
    9.798074707031D+03-2.810083389282D+00 3.725290298462D-09-4.000000000000D+00
   -2.235496142578D+04-8.335819244385D-01 1.862645149231D-09 0.000000000000D+00
 8 21  8 22 18 15  0.0-6.052944809198D-05-0.000000000000D+00 6.480000000000D+04
    1.128660693359D+04 3.507070541382D-01-9.313225746155D-10 0.000000000000D+00
    2.253697753906D+04 4.246826171875D-01 4.656612873077D-09 6.000000000000D+00
    3.895787109375D+03-3.521919250488D+00-1.862645149231D-09 0.000000000000D+00
21 21  8 22 18 15  0.0-2.334890887141D-04-2.728484105319D-12 6.480000000000D+04
   -1.029916308594D+04-7.152681350708D-01 9.313225746155D-10 0.000000000000D+00
    2.086489550781D+04 1.265534400940D+00 5.587935447693D-09 4.000000000000D+00
   -1.049896972656D+04 3.214905738831D+00-9.313225746155D-10 0.000000000000D+00
22 21  8 22 18 15  0.0-1.292340457439D-04-1.818989403546D-12 6.498000000000D+04
    1.937955566406D+03-1.785175323486D+00-0.000000000000D+00 0.000000000000D+00
    1.317287841797D+04 2.389535903931D+00 4.656612873077D-09-3.000000000000D+00
   -2.175663818359D+04 1.296698570251D+00 9.313225746155D-10 0.000000000000D+00
 1 21  8 22 18 15  0.0 8.422695100307D-05 0.000000000000D+00 6.654000000000D+04
    1.438044531250D+04 1.036514282227D+00-1.862645149231D-09 0.000000000000D+00
    1.216476904297D+04 2.117196083069D+00 9.313225746155D-10 1.000000000000D+00
    1.720725537109D+04-2.361415863037D+00-2.793967723846D-09 0.000000000000D+00
22 21  8 22 18 45  0.0-1.292377710342D-04-1.818989403546D-12 6.660000000000D+04
   -7.435683593750D+02-1.184684753418D+00 9.313225746155D-10 0.000000000000D+00
    1.740721435547D+04 2.264915466309D+00 5.587935447693D-09-3.000000000000D+00
   -1.861128710938D+04 2.175672531128D+00 0.000000000000D+00 0.000000000000D+00
20 21  8 22 18 45  0.0-5.458761006594D-05-0.000000000000D+00 6.660000000000D+04
   -1.605890429688D+04 1.227397918701D+00 1.862645149231D-09 0.000000000000D+00
    1.348597705078D+04-1.579433441162D+00 0.000000000000D+00 2.000000000000D+00
    1.450074853516D+04 2.831402778625D+00-1.862645149231D-09 0.000000000000D+00
 1 21  8 22 18 45  0.0 8.422788232565D-05 0.000000000000D+00 6.660000000000D+04
    1.623608496094D+04 9.825639724731D-01-9.313225746155D-10 0.000000000000D+00
    1.532661621094D+04 1.380584716797D+00 2.793967723846D-09 1.000000000000D+00
    1.234673486328D+04-3.004103660583D+00-2.793967723846D-09 0.000000000000D+00
 7 21  8 22 18 45  0.0-4.157144576311D-05-0.000000000000D+00 6.660000000000D+04
    1.277583984375D+03-1.093696594238D+00 9.313225746155D-10 0.000000000000D+00
    1.866224951172D+04-2.112133026123D+00 5.587935447693D-09 5.000000000000D+00
   -1.728425683594D+04-2.360767364502D+00 0.000000000000D+00 0.000000000000D+00
 8 21  8 22 18 45  0.0-6.053037941456D-05-0.000000000000D+00 6.660000000000D+04
    1.160519140625D+04-3.423118591309D-02-0.000000000000D+00 0.000000000000D+00
    2.255689208984D+04-3.860273361206D-01 5.587935447693D-09 6.000000000000D+00
   -2.512429199219D+03-3.552029609680D+00-1.862645149231D-09 0.000000000000D+00
21 21  8 22 18 45  0.0-2.334946766496D-04-2.728484105319D-12 6.660000000000D+04
   -1.101169580078D+04-1.000366210938D-01 1.862645149231D-09 0.000000000000D+00
    2.261008300781D+04 6.367759704590D-01 4.656612873077D-09 4.000000000000D+00
   -4.381739257812D+03 3.537977218628D+00-9.313225746155D-10 0.000000000000D+00
10 21  8 22 18 45  0.0-7.422454655170D-05-0.000000000000D+00 6.825000000000D+04
   -1.025378759766D+04-2.874869346619D+00 9.313225746155D-10 0.000000000000D+00
    1.021171777344D+04 1.076812744141D-01-0.000000000000D+00-7.000000000000D+00
    2.102274169922D+04-1.448293685913D+00-2.793967723846D-09 0.000000000000D+00
22 21  8 22 19 15  0.0-1.292414963245D-04-1.818989403546D-12 6.840000000000D+04
   -2.327079589844D+03-5.843458175659D-01 2.793967723846D-09 0.000000000000D+00
    2.114720458984D+04 1.842972755432D+00 5.587935447693D-09-3.000000000000D+00
   -1.402478759766D+04 2.887454032898D+00-0.000000000000D+00 0.000000000000D+00
10 21  8 22 19 15  0.0-7.422547787428D-05-0.000000000000D+00 6.840000000000D+04
   -1.501320751953D+04-2.371667861938D+00 1.862645149231D-09 0.000000000000D+00
    1.073794970703D+04 4.520540237427D-01-0.000000000000D+00-7.000000000000D+00
    1.763840185547D+04-2.287594795227D+00-1.862645149231D-09 0.000000000000D+00
 1 21  8 22 19 15  0.0 8.422881364822D-05 0.000000000000D+00 6.840000000000D+04
    1.776159765625D+04 6.700153350830D-01-0.000000000000D+00 0.000000000000D+00
    1.711372802734D+04 6.087846755981D-01 4.656612873077D-09 1.000000000000D+00
    6.532149414062D+03-3.414617538452D+00-1.862645149231D-09 0.000000000000D+00
 7 21  8 22 19 15  0.0-4.157237708569D-05-0.000000000000D+00 6.840000000000D+04
   -1.227727050781D+03-1.684560775757D+00 1.862645149231D-09 0.000000000000D+00
    1.463727929688D+04-2.311341285706D+00 4.656612873077D-09 5.000000000000D+00
   -2.080726904297D+04-1.528185844421D+00 9.313225746155D-10 0.000000000000D+00
 8 21  8 22 19 15  0.0-6.053131073713D-05-0.000000000000D+00 6.840000000000D+04
    1.104681933594D+04-6.121797561646D-01 9.313225746155D-10 0.000000000000D+00
    2.123732177734D+04-1.047565460205D+00 6.519258022308D-09 6.000000000000D+00
   -8.725860351562D+03-3.306770324707D+00-9.313225746155D-10 0.000000000000D+00
20 21  8 22 19 15  0.0-5.458947271109D-05-0.000000000000D+00 6.840000000000D+04
   -1.381768066406D+04 1.218311309814D+00 1.862645149231D-09 0.000000000000D+00
    9.971494140625D+03-2.305315017700D+00-9.313225746155D-10 2.000000000000D+00
    1.897003271484D+04 2.102250099182D+00-1.862645149231D-09 0.000000000000D+00
21 21  8 22 19 15  0.0-2.334993332624D-04-2.728484105319D-12 6.840000000000D+04
   -1.076996679688D+04 3.319225311279D-01 2.793967723846D-09 0.000000000000D+00
    2.305057128906D+04-1.687946319580D-01 3.725290298462D-09 4.000000000000D+00
    2.073548339844D+03 3.588088035583D+00-1.862645149231D-09 0.000000000000D+00
